[{"OBJECT_NAME":"STARLINK-34927","OBJECT_ID":"2025-175Y","EPOCH":"2026-03-09T14:55:22.738080","MEAN_MOTION":15.05645633,"ECCENTRICITY":0.0001915,"INCLINATION":97.6019,"RA_OF_ASC_NODE":302.6445,"ARG_OF_PERICENTER":90.2716,"MEAN_ANOMALY":269.873,"EPHEMERIS_TYPE":0,"CLASSIFICATION_TYPE":"U","NORAD_CAT_ID":65196,"ELEMENT_SET_NO":999,"REV_AT_EPOCH":3263,"BSTAR":1.7277e-5,"MEAN_MOTION_DOT":1.88e-6,"MEAN_MOTION_DDOT":0},{"OBJECT_NAME":"CZ-4B DEB","OBJECT_ID":"2020-067G","EPOCH":"2026-03-09T15:23:17.086272","MEAN_MOTION":14.97507509,"ECCENTRICITY":0.0035481,"INCLINATION":97.6356,"RA_OF_ASC_NODE":124.8214,"ARG_OF_PERICENTER":11.4219,"MEAN_ANOMALY":348.7801,"EPHEMERIS_TYPE":0,"CLASSIFICATION_TYPE":"U","NORAD_CAT_ID":46484,"ELEMENT_SET_NO":999,"REV_AT_EPOCH":29505,"BSTAR":0.00058118,"MEAN_MOTION_DOT":6.807e-5,"MEAN_MOTION_DDOT":0}]
